STARLINK-5290           
1 54157U 22141A   26068.26345695  .00001597  00000+0  11846-3 0  9998
2 54157  53.2180  15.9856 0001363  99.2580 260.8566 15.08831092185658
LEMUR-2-KREMPEL-BRO2    
1 63353U 25061C   26068.86379735  .00007837  00000+0  44347-3 0  9993
2 63353  97.5616  45.5365 0017925 236.8576 123.0936 15.13192951 52586
